{"type": "FeatureCollection", "features": [ {"type": "Feature", "properties": {"norad_id": 32203, "name": "FENGYUN 1C DEB", "group": "fengyun-1c-debris", "lat": 72.95346265226141, "lon": -144.98248596530374, "alt_km": 341.46090982935675, "timestamp": "2025-12-13T05:42:57.845815+00:00", "meta": {"OBJECT_NAME": "FENGYUN 1C DEB", "OBJECT_ID": "1999-025CUZ", "EPOCH": "2025-12-11T15:59:24.501120", "MEAN_MOTION": 15.40648502, "ECCENTRICITY": 0.014509, "INCLINATION": 97.0168, "RA_OF_ASC_NODE": 237.1923, "ARG_OF_PERICENTER": 95.6941, "MEAN_ANOMALY": 266.0871, "EPHEMERIS_TYPE": 0, "CLASSIFICATION_TYPE": "U", "NORAD_CAT_ID": 32203, "ELEMENT_SET_NO": 999, "REV_AT_EPOCH": 75081, "BSTAR": 0.00090879586, "MEAN_MOTION_DOT": 0.00054284, "MEAN_MOTION_DDOT": 0}, "tle": {"line1": "1 32203U 99025CUZ 25345.66625580  .00054284  00000+0  90880-3 0  9992", "line2": "2 32203  97.0168 237.1923 0145090  95.6941 266.0871 15.40648502750819"}}, "geometry": {"type": "Point", "coordinates": [-144.98248596530374, 72.95346265226141]}}, {"type": "Feature", "properties": {"norad_id": 32205, "name": "FENGYUN 1C DEB", "group": "fengyun-1c-debris", "lat": 26.195929884933186, "lon": -13.186392340036324, "alt_km": 845.721318140846, "timestamp": "2025-12-13T05:42:57.845826+00:00", "meta": {"OBJECT_NAME": "FENGYUN 1C DEB", "OBJECT_ID": "1999-025CVB", "EPOCH": "2025-12-11T11:51:06.748704", "MEAN_MOTION": 14.13910227, "ECCENTRICITY": 0.00100927, "INCLINATION": 98.6782, "RA_OF_ASC_NODE": 349.4295, "ARG_OF_PERICENTER": 296.0832, "MEAN_ANOMALY": 216.5669, "EPHEMERIS_TYPE": 0, "CLASSIFICATION_TYPE": "U", "NORAD_CAT_ID": 32205, "ELEMENT_SET_NO": 999, "REV_AT_EPOCH": 94480, "BSTAR": 0.00026375465, "MEAN_MOTION_DOT": 4.58e-06, "MEAN_MOTION_DDOT": 0}, "tle": {"line1": "1 32205U 99025CVB 25345.49382811  .00000458  00000+0  26375-3 0  9994", "line2": "2 32205  98.6782 349.4295 0010092 296.0832 216.5669 14.13910227944802"}}, "geometry": {"type": "Point", "coordinates": [-13.186392340036324, 26.195929884933186]}}, {"type": "Feature", "properties": {"norad_id": 32207, "name": "FENGYUN 1C DEB", "group": "fengyun-1c-debris", "lat": 15.034123307110812, "lon": 128.90906792213957, "alt_km": 707.0061234068071, "timestamp": "2025-12-13T05:42:57.845836+00:00", "meta": {"OBJECT_NAME": "FENGYUN 1C DEB", "OBJECT_ID": "1999-025CVD", "EPOCH": "2025-12-12T04:00:31.760928", "MEAN_MOTION": 14.39569701, "ECCENTRICITY": 0.00852472, "INCLINATION": 99.8553, "RA_OF_ASC_NODE": 305.0027, "ARG_OF_PERICENTER": 139.3042, "MEAN_ANOMALY": 236.8167, "EPHEMERIS_TYPE": 0, "CLASSIFICATION_TYPE": "U", "NORAD_CAT_ID": 32207, "ELEMENT_SET_NO": 999, "REV_AT_EPOCH": 64299, "BSTAR": 0.00048704631, "MEAN_MOTION_DOT": 1.529e-05, "MEAN_MOTION_DDOT": 0}, "tle": {"line1": "1 32207U 99025CVD 25346.16703427  .00001529  00000+0  48705-3 0  9992", "line2": "2 32207  99.8553 305.0027 0085247 139.3042 236.8167 14.39569701642998"}}, "geometry": {"type": "Point", "coordinates": [128.90906792213957, 15.034123307110812]}}, {"type": "Feature", "properties": {"norad_id": 32209, "name": "FENGYUN 1C DEB", "group": "fengyun-1c-debris", "lat": -48.35515324362111, "lon": 103.8679915743947, "alt_km": 1312.854019822883, "timestamp": "2025-12-13T05:42:57.845847+00:00", "meta": {"OBJECT_NAME": "FENGYUN 1C DEB", "OBJECT_ID": "1999-025CVF", "EPOCH": "2025-12-11T02:40:28.814304", "MEAN_MOTION": 13.4716101, "ECCENTRICITY": 0.03331235, "INCLINATION": 99.4206, "RA_OF_ASC_NODE": 292.6227, "ARG_OF_PERICENTER": 29.3187, "MEAN_ANOMALY": 332.6194, "EPHEMERIS_TYPE": 0, "CLASSIFICATION_TYPE": "U", "NORAD_CAT_ID": 32209, "ELEMENT_SET_NO": 999, "REV_AT_EPOCH": 89954, "BSTAR": 0.0038267004, "MEAN_MOTION_DOT": 3.226e-05, "MEAN_MOTION_DDOT": 0}, "tle": {"line1": "1 32209U 99025CVF 25345.11144461  .00003226  00000+0  38267-2 0  9992", "line2": "2 32209  99.4206 292.6227 0333123  29.3187 332.6194 13.47161010899540"}}, "geometry": {"type": "Point", "coordinates": [103.8679915743947, -48.35515324362111]}}, {"type": "Feature", "properties": {"norad_id": 32212, "name": "FENGYUN 1C DEB", "group": "fengyun-1c-debris", "lat": -48.272864147044956, "lon": -106.91947000336302, "alt_km": 850.8878668346952, "timestamp": "2025-12-13T05:42:57.845857+00:00", "meta": {"OBJECT_NAME": "FENGYUN 1C DEB", "OBJECT_ID": "1999-025CVJ", "EPOCH": "2025-12-12T05:27:47.664864", "MEAN_MOTION": 14.40319948, "ECCENTRICITY": 0.01379946, "INCLINATION": 99.5732, "RA_OF_ASC_NODE": 82.8595, "ARG_OF_PERICENTER": 80.0007, "MEAN_ANOMALY": 311.5035, "EPHEMERIS_TYPE": 0, "CLASSIFICATION_TYPE": "U", "NORAD_CAT_ID": 32212, "ELEMENT_SET_NO": 999, "REV_AT_EPOCH": 96054, "BSTAR": 0.00070927237, "MEAN_MOTION_DOT": 2.459e-05, "MEAN_MOTION_DDOT": 0}, "tle": {"line1": "1 32212U 99025CVJ 25346.22763501  .00002459  00000+0  70927-3 0  9998", "line2": "2 32212  99.5732  82.8595 0137994  80.0007 311.5035 14.40319948960547"}}, "geometry": {"type": "Point", "coordinates": [-106.91947000336302, -48.272864147044956]}}, {"type": "Feature", "properties": {"norad_id": 32214, "name": "FENGYUN 1C DEB", "group": "fengyun-1c-debris", "lat": -30.602461435741937, "lon": 18.246152162595703, "alt_km": 880.5296390332069, "timestamp": "2025-12-13T05:42:57.845868+00:00", "meta": {"OBJECT_NAME": "FENGYUN 1C DEB", "OBJECT_ID": "1999-025CVL", "EPOCH": "2025-12-12T00:38:51.787392", "MEAN_MOTION": 13.90525289, "ECCENTRICITY": 0.0188558, "INCLINATION": 99.0438, "RA_OF_ASC_NODE": 11.6619, "ARG_OF_PERICENTER": 41.1528, "MEAN_ANOMALY": 350.1279, "EPHEMERIS_TYPE": 0, "CLASSIFICATION_TYPE": "U", "NORAD_CAT_ID": 32214, "ELEMENT_SET_NO": 999, "REV_AT_EPOCH": 62412, "BSTAR": 0.0062452, "MEAN_MOTION_DOT": 8.939e-05, "MEAN_MOTION_DDOT": 0}, "tle": {"line1": "1 32214U 99025CVL 25346.02698828  .00008939  00000+0  62452-2 0  9999", "line2": "2 32214  99.0438  11.6619 0188558  41.1528 350.1279 13.90525289624123"}}, "geometry": {"type": "Point", "coordinates": [18.246152162595703, -30.602461435741937]}}, {"type": "Feature", "properties": {"norad_id": 32218, "name": "FENGYUN 1C DEB", "group": "fengyun-1c-debris", "lat": -42.09479423591038, "lon": -170.81556135049385, "alt_km": 728.369079085679, "timestamp": "2025-12-13T05:42:57.845879+00:00", "meta": {"OBJECT_NAME": "FENGYUN 1C DEB", "OBJECT_ID": "1999-025CVQ", "EPOCH": "2025-12-12T07:37:31.029600", "MEAN_MOTION": 14.55482491, "ECCENTRICITY": 0.00631893, "INCLINATION": 98.8122, "RA_OF_ASC_NODE": 180.1576, "ARG_OF_PERICENTER": 68.7667, "MEAN_ANOMALY": 109.1686, "EPHEMERIS_TYPE": 0, "CLASSIFICATION_TYPE": "U", "NORAD_CAT_ID": 32218, "ELEMENT_SET_NO": 999, "REV_AT_EPOCH": 96226, "BSTAR": 0.00125669, "MEAN_MOTION_DOT": 5.567e-05, "MEAN_MOTION_DDOT": 0}, "tle": {"line1": "1 32218U 99025CVQ 25346.31772025  .00005567  00000+0  12567-2 0  9993", "line2": "2 32218  98.8122 180.1576 0063189  68.7667 109.1686 14.55482491962262"}}, "geometry": {"type": "Point", "coordinates": [-170.81556135049385, -42.09479423591038]}}, {"type": "Feature", "properties": {"norad_id": 32221, "name": "FENGYUN 1C DEB", "group": "fengyun-1c-debris", "lat": -33.44149836053372, "lon": -48.53820073281479, "alt_km": 665.9411908476432, "timestamp": "2025-12-13T05:42:57.845889+00:00", "meta": {"OBJECT_NAME": "FENGYUN 1C DEB", "OBJECT_ID": "1999-025CVT", "EPOCH": "2025-12-12T04:03:23.037696", "MEAN_MOTION": 14.58693776, "ECCENTRICITY": 0.01467626, "INCLINATION": 98.5654, "RA_OF_ASC_NODE": 136.0721, "ARG_OF_PERICENTER": 147.4855, "MEAN_ANOMALY": 213.5489, "EPHEMERIS_TYPE": 0, "CLASSIFICATION_TYPE": "U", "NORAD_CAT_ID": 32221, "ELEMENT_SET_NO": 999, "REV_AT_EPOCH": 97189, "BSTAR": 0.00064497554, "MEAN_MOTION_DOT": 3.438e-05, "MEAN_MOTION_DDOT": 0}, "tle": {"line1": "1 32221U 99025CVT 25346.16901664  .00003438  00000+0  64498-3 0  9999", "line2": "2 32221  98.5654 136.0721 0146762 147.4855 213.5489 14.58693776971891"}}, "geometry": {"type": "Point", "coordinates": [-48.53820073281479, -33.44149836053372]}}, {"type": "Feature", "properties": {"norad_id": 32223, "name": "FENGYUN 1C DEB", "group": "fengyun-1c-debris", "lat": 32.545071198762436, "lon": 60.6031594540398, "alt_km": 812.5694324541282, "timestamp": "2025-12-13T05:42:57.845900+00:00", "meta": {"OBJECT_NAME": "FENGYUN 1C DEB", "OBJECT_ID": "1999-025CVV", "EPOCH": "2025-12-12T04:20:53.532096", "MEAN_MOTION": 14.20890687, "ECCENTRICITY": 0.00468069, "INCLINATION": 98.8387, "RA_OF_ASC_NODE": 65.245, "ARG_OF_PERICENTER": 319.1378, "MEAN_ANOMALY": 69.6947, "EPHEMERIS_TYPE": 0, "CLASSIFICATION_TYPE": "U", "NORAD_CAT_ID": 32223, "ELEMENT_SET_NO": 999, "REV_AT_EPOCH": 64216, "BSTAR": 0.0020402533, "MEAN_MOTION_DOT": 4.42e-05, "MEAN_MOTION_DDOT": 0}, "tle": {"line1": "1 32223U 99025CVV 25346.18117514  .00004420  00000+0  20403-2 0  9995", "line2": "2 32223  98.8387  65.2450 0046806 319.1378  69.6947 14.20890687642160"}}, "geometry": {"type": "Point", "coordinates": [60.6031594540398, 32.545071198762436]}}, {"type": "Feature", "properties": {"norad_id": 32224, "name": "FENGYUN 1C DEB", "group": "fengyun-1c-debris", "lat": 11.068872790677554, "lon": 120.04148014936688, "alt_km": 792.3704887125632, "timestamp": "2025-12-13T05:42:57.845910+00:00", "meta": {"OBJECT_NAME": "FENGYUN 1C DEB", "OBJECT_ID": "1999-025CVW", "EPOCH": "2025-12-11T07:43:35.963328", "MEAN_MOTION": 14.34018256, "ECCENTRICITY": 0.00771925, "INCLINATION": 98.9841, "RA_OF_ASC_NODE": 296.2781, "ARG_OF_PERICENTER": 70.5749, "MEAN_ANOMALY": 290.3756, "EPHEMERIS_TYPE": 0, "CLASSIFICATION_TYPE": "U", "NORAD_CAT_ID": 32224, "ELEMENT_SET_NO": 999, "REV_AT_EPOCH": 95703, "BSTAR": 0.00053905647, "MEAN_MOTION_DOT": 1.51e-05, "MEAN_MOTION_DDOT": 0}, "tle": {"line1": "1 32224U 99025CVW 25345.32194402  .00001510  00000+0  53906-3 0  9994", "line2": "2 32224  98.9841 296.2781 0077192  70.5749 290.3756 14.34018256957037"}}, "geometry": {"type": "Point", "coordinates": [120.04148014936688, 11.068872790677554]}}]}